satname,norad_id,inclination_deg,eccentricity,mean_motion_rev_per_day,perigee_km,apogee_km,l1,l2
STARLINK-1413,45689,53.1561,0.0003309,15.32615579,465.74666996050473,470.2774514088669,1 45689U 20035AJ  26130.39958089  .00030294  00000+0  95621-3 0  9998,2 45689  53.1561 122.6681 0003309  66.4791 293.6558 15.32615579328341
STARLINK-1417,45693,53.0493,0.0005857,15.15471312,515.5080938319161,523.5880421205429,1 45693U 20035AN  26130.38300030  .00015540  00000+0  82566-3 0  9990,2 45693  53.0493 134.0276 0005857  49.7119 310.4385 15.15471312328245
STARLINK-1420,45695,53.0456,0.0006738,15.6524062,367.9982177108632,377.09543923811543,1 45695U 20035AQ  26130.12217594  .00037725  00000+0  37686-3 0  9998,2 45695  53.0456  83.2348 0006738  47.1838 312.9742 15.65240620328942
STARLINK-1422,45696,53.1554,0.0003589,15.3271244,465.2666463235764,470.1806050807054,1 45696U 20035AR  26130.27303639  .00032937  00000+0  10351-2 0  9990,2 45696  53.1554 123.2203 0003589  58.5703 301.5650 15.32712440328407
STARLINK-1351,45697,53.0437,0.0006746,15.63192839,373.883146959236,382.99912217839574,1 45697U 20035AS  26130.56057687  .00072151  00000+0  77273-3 0  9991,2 45697  53.0437  81.1797 0006746  53.5245 306.6390 15.63192839329014
STARLINK-1400,45700,53.0434,0.0005635,15.60812289,381.4982733281786,389.1206775059736,1 45700U 20035AV  26130.85953163  .00077905  00000+0  91410-3 0  9993,2 45700  53.0434  81.8814 0005635  20.8609 339.2632 15.60812289329027
STARLINK-1403,45701,53.1562,0.0003027,15.31736394,468.5583865259141,472.70463098111395,1 45701U 20035AW  26130.65821872  .00030601  00000+0  99263-3 0  9999,2 45701  53.1562 108.7640 0003027  70.4220 289.7108 15.31736394328633
STARLINK-1407,45703,53.03,0.0002384,15.69812106,357.82834090525284,361.04081503362795,1 45703U 20035AY  26130.81348897  .00041734  00000+0  34607-3 0  9990,2 45703  53.0300  10.5134 0002384 349.5136  10.5830 15.69812106330028
STARLINK-1411,45706,53.0351,0.0002813,15.78522086,332.73901622745234,336.51561743210004,1 45706U 20035BB  26130.83335647  .00102065  00000+0  57240-3 0  9997,2 45706  53.0351  34.2967 0002813 122.3642 207.9646 15.78522086  5593
STARLINK-1423,45710,53.0435,0.0007651,15.66173611,364.7026824405375,375.0284759872493,1 45710U 20035BF  26130.29758090  .00036480  00000+0  35123-3 0  9996,2 45710  53.0435  82.0145 0007651  21.0533 339.0795 15.66173611328963
STARLINK-1433,45711,53.0435,0.0007515,15.65789773,365.89638591579023,376.040291239673,1 45711U 20035BG  26130.84982241  .00035957  00000+0  35166-3 0  9990,2 45711  53.0435  77.8133 0007515  29.5772 330.5666 15.65789773329077
STARLINK-1434,45712,53.0492,0.0003562,15.32139438,466.99126301880096,471.8694700107053,1 45712U 20035BH  26130.18525047  .00029888  00000+0  95766-3 0  9993,2 45712  53.0492  93.9557 0003562  23.2001 336.9159 15.32139438328802
STARLINK-1465,45731,53.0466,0.0001593,15.60014538,386.53726212421225,388.6928307262033,1 45731U 20038B   26130.79639500  .00065906  00000+0  79986-3 0  9991,2 45731  53.0466 282.8987 0001593 210.3429 149.7492 15.60014538326043
STARLINK-1471,45735,53.0446,0.0002694,15.52191817,408.49916279563877,412.15678772430965,1 45735U 20038F   26130.52232001  .00016261  00000+0  27082-3 0  9991,2 45735  53.0446 205.0235 0002694  53.3266 306.7991 15.52191817327121
STARLINK-1480,45741,53.0488,0.0004048,15.61386666,380.9135191264668,386.38786244092535,1 45741U 20038M   26130.65390490  .00068008  00000+0  78252-3 0  9990,2 45741  53.0488 277.2966 0004048 289.4039  70.6536 15.61386666326120
STARLINK-1500,45744,53.0347,0.000252,15.37985252,450.3466101813683,453.78903341155365,1 45744U 20038Q   26130.79830720  .00013847  00000+0  37483-3 0  9995,2 45744  53.0347 260.6659 0002520  92.7134 267.4157 15.37985252326366
STARLINK-1504,45746,53.0201,0.0002919,15.57298487,393.50221188443174,397.45664915656835,1 45746U 20038S   26130.44000735  .00019796  00000+0  27234-3 0  9996,2 45746  53.0201 203.3187 0002919  25.8841 334.2315 15.57298487327124
STARLINK-1506,45747,53.0757,0.0004043,15.2786507,479.4219941494039,484.9692591112971,1 45747U 20038T   26130.64006524  .00003785  00000+0  14997-3 0  9994,2 45747  53.0757 275.4277 0004043  92.0473 268.0989 15.27865070326156
STARLINK-1464,45751,53.0469,0.000149,15.51973524,409.95293905160725,411.9760913031296,1 45751U 20038X   26130.68558560  .00057038  00000+0  93358-3 0  9993,2 45751  53.0469 268.1283 0001490 301.3241  58.7622 15.51973524326259
STARLINK-1477,45754,53.0517,0.0001514,15.17568041,512.1498561729322,514.2365509585716,1 45754U 20038AA  26130.80215899  .00019399  00000+0  96716-3 0  9994,2 45754  53.0517 289.9444 0001514 169.1355 190.9672 15.17568041325955
STARLINK-1478,45755,53.0459,0.0002137,15.65421838,370.5833221439407,373.4683417383112,1 45755U 20038AB  26130.75654316  .00036134  00000+0  35899-3 0  9991,2 45755  53.0459 255.3190 0002137 335.7148  24.3765 15.65421838326420
STARLINK-1493,45759,53.0477,0.000483,15.60826065,382.00295338273827,388.53640423446814,1 45759U 20038AF  26130.83714716  .00070012  00000+0  82262-3 0  9994,2 45759  53.0477 263.8049 0004830 278.8899  81.1567 15.60826065326318
STARLINK-1494,45760,53.0413,0.0006579,15.91527177,293.61639941588237,302.4008718432442,1 45760U 20038AG  26130.83335647  .00135053  17881-4  41657-3 0  9998,2 45760  53.0413 199.0019 0006579 345.9603 195.4888 15.91527177  5694
STARLINK-1502,45764,53.0471,0.0006164,15.57228553,391.506845617173,399.85760996119006,1 45764U 20038AL  26130.75994185  .00049007  00000+0  66327-3 0  9995,2 45764  53.0471 267.2503 0006164 235.5386 124.5043 15.57228553326274
STARLINK-1470,45772,53.0446,0.0002271,15.33289301,464.452159378312,467.56076933982513,1 45772U 20038AU  26130.63725132  .00025416  00000+0  78782-3 0  9991,2 45772  53.0446 245.5967 0002271 297.3869  62.6900 15.33289301326563
STARLINK-1482,45773,53.1579,0.0002354,15.355795,457.5902527518565,460.80927089932356,1 45773U 20038AV  26130.75678567  .00032473  00000+0  93242-3 0  9993,2 45773  53.1579 261.5969 0002354 276.5195  83.5540 15.35579500326360
STARLINK-1496,45780,53.0465,0.0006134,15.58892029,386.71042228031547,395.0146308995354,1 45780U 20038BC  26130.72186941  .00072025  00000+0  91024-3 0  9991,2 45780  53.0465 238.5611 0006134 345.9671  14.1170 15.58892029326659
STARLINK-1513,45786,53.1598,0.000118,15.31708593,469.9062155966967,471.5225445223905,1 45786U 20038BJ  26130.64910507  .00001707  00000+0  66737-4 0  9994,2 45786  53.1598 263.0839 0001180  92.7455 267.3682 15.31708593326339
STARLINK-1522,46027,53.0619,0.0001912,15.12006974,528.7592655724911,531.4009677979102,1 46027U 20055A   26130.47935698  .00012708  00000+0  74735-3 0  9990,2 46027  53.0619 207.3727 0001912 326.9190  33.1682 15.12006974318220
STARLINK-1523,46028,53.1607,9.57e-05,15.30193497,474.5786186226778,475.8903539251505,1 46028U 20055B   26130.50598440 -.00003678  00000+0 -11215-3 0  9997,2 46028  53.1607 199.5722 0000957  79.5731 280.5378 15.30193497318368
STARLINK-1526,46029,53.159,0.0001513,15.30181208,474.2342588607107,476.3081001758319,1 46029U 20055C   26130.49966433 -.00003010  00000+0 -89590-4 0  9999,2 46029  53.1590 199.6123 0001513  90.2987 269.8187 15.30181208318352
STARLINK-1555,46032,53.1591,0.0001379,15.30199569,474.2712788801027,476.1614337357714,1 46032U 20055F   26130.48385656  .00002581  00000+0  99233-4 0  9999,2 46032  53.1591 199.6693 0001379  94.2866 265.8293 15.30199569318352
STARLINK-1556,46033,53.159,9.52e-05,15.30195281,474.5767190805418,475.8815999973185,1 46033U 20055G   26130.46702063  .00008424  00000+0  29626-3 0  9993,2 46033  53.1590 199.7555 0000952  50.2053 309.9032 15.30195281318321
STARLINK-1557,46034,53.1601,0.0001106,15.30200211,474.456458742231,475.97242008062767,1 46034U 20055H   26130.47016341  .00002961  00000+0  11205-3 0  9996,2 46034  53.1601 199.7451 0001106  78.1658 281.9467 15.30200211318323
STARLINK-1558,46035,53.1601,0.0001281,15.30197537,474.34450816108074,476.100338845381,1 46035U 20055J   26130.54285273  .00002251  00000+0  88094-4 0  9990,2 46035  53.1601 199.4081 0001281  99.3918 260.7227 15.30197537318367
STARLINK-1560,46036,53.1609,0.000108,15.30201494,474.47044706652014,475.9507701499788,1 46036U 20055K   26130.46383823  .00003020  00000+0  11405-3 0  9998,2 46036  53.1609 199.7823 0001080  85.7051 274.4073 15.30201494318355
STARLINK-1569,46039,53.1597,0.0001194,15.30209211,474.36928021825497,476.00585412489545,1 46039U 20055N   26130.54600463 -.00001605  00000+0 -42060-4 0  9993,2 46039  53.1597 199.3843 0001194  84.9220 275.1917 15.30209211318357
STARLINK-1582,46043,53.159,0.0001216,15.31693267,469.92724013858333,471.59289190504023,1 46043U 20055S   26130.52587875  .00006848  00000+0  23227-3 0  9992,2 46043  53.1590 199.1864 0001216  91.4226 268.6914 15.31693267318353
STARLINK-1591,46045,53.1597,0.0001231,15.30195961,474.38348004751424,476.07077829611626,1 46045U 20055U   26130.51335060  .00001294  00000+0  55822-4 0  9997,2 46045  53.1597 199.5400 0001231  87.3459 272.7683 15.30195961318335
STARLINK-1524,46047,53.1595,0.0001179,15.31714673,469.8887786844389,471.50373356623277,1 46047U 20055W   26130.42995226  .00007308  00000+0  24692-3 0  9997,2 46047  53.1595 186.9288 0001179  82.3913 277.7223 15.31714673318524
STARLINK-1527,46048,53.1601,0.0001252,15.31711471,469.8483258662691,471.56327610363587,1 46048U 20055X   26130.42528491  .00001990  00000+0  75852-4 0  9990,2 46048  53.1601 186.9318 0001252  93.7029 266.4115 15.31711471318497
STARLINK-1540,46051,53.1587,0.000136,15.3019162,474.3080314186727,476.1721499873438,1 46051U 20055AA  26130.47170510  .00000705  00000+0  35937-4 0  9997,2 46051  53.1587 186.8716 0001360  91.6129 268.5028 15.30191620318542
STARLINK-1541,46052,53.1594,0.0002007,15.76262006,339.69385366385177,342.3909322721893,1 46052U 20055AB  26130.83335647 -.00028627  00000+0 -17507-3 0  9999,2 46052  53.1594 178.7615 0002007  66.4837 196.0004 15.76262006  5475
